[{"OBJECT_NAME":"STARLINK-5666","OBJECT_ID":"2023-013U","EPOCH":"2026-03-07T23:40:22.757664","MEAN_MOTION":15.02537813,"ECCENTRICITY":0.00011448,"INCLINATION":43.004,"RA_OF_ASC_NODE":309.5501,"ARG_OF_PERICENTER":273.5114,"MEAN_ANOMALY":86.5598,"EPHEMERIS_TYPE":0,"CLASSIFICATION_TYPE":"U","NORAD_CAT_ID":55349,"ELEMENT_SET_NO":999,"REV_AT_EPOCH":17145,"BSTAR":4.2868148e-5,"MEAN_MOTION_DOT":3.76e-6,"MEAN_MOTION_DDOT":0},{"OBJECT_NAME":"COSMOS 2084","OBJECT_ID":"1990-055A","EPOCH":"2026-03-09T23:42:10.320480","MEAN_MOTION":15.05654003,"ECCENTRICITY":0.00170188,"INCLINATION":62.7921,"RA_OF_ASC_NODE":334.5624,"ARG_OF_PERICENTER":190.1371,"MEAN_ANOMALY":169.9389,"EPHEMERIS_TYPE":0,"CLASSIFICATION_TYPE":"U","NORAD_CAT_ID":20663,"ELEMENT_SET_NO":999,"REV_AT_EPOCH":93636,"BSTAR":0.00023056361,"MEAN_MOTION_DOT":3.154e-5,"MEAN_MOTION_DDOT":0}]
